satname,norad_id,inclination_deg,eccentricity,mean_motion_rev_per_day,perigee_km,apogee_km,l1,l2
STARLINK-1280,45388,53.05,0.0010263,15.46198309,420.87435843912135,434.8443465522532,1 45388U 20019AE  25346.28071635  .00028599  00000+0  57853-3 0  9995,2 45388  53.0500 185.5529 0010263 132.1639 228.0241 15.46198309316730
STARLINK-1283,45389,53.0464,0.0011271,15.35948261,450.40021945581884,465.8104769571455,1 45389U 20019AF  25345.53490247  .00119080  00000+0  33064-2 0  9990,2 45389  53.0464 171.1039 0011271 138.9199 221.2654 15.35948261316889
STARLINK-1284,45390,53.0532,0.0001437,15.06394347,546.2337085458012,548.2240587007536,1 45390U 20019AG  25346.24129575 -.00000395  00000+0 -76577-5 0  9993,2 45390  53.0532 179.1921 0001437  90.9826 269.1328 15.06394347316823
STARLINK-1297,45395,53.0521,0.0001377,15.06397986,546.2641092186868,548.1713519114846,1 45395U 20019AM  25346.27815377  .00001148  00000+0  95983-4 0  9999,2 45395  53.0521 179.0246 0001377  86.8370 273.2777 15.06397986316013
STARLINK-1307,45397,53.0578,0.0001067,15.0638859,546.5075897432116,547.9854665881212,1 45397U 20019AP  25346.27080104 -.00000891  00000+0 -40923-4 0  9993,2 45397  53.0578 179.0553 0001067  90.3516 269.7595 15.06388590316655
STARLINK-1255,45399,53.047,0.0007492,15.3593353,453.0273131441181,463.27080417441266,1 45399U 20019AR  25345.86891608  .00016901  00000+0  48569-3 0  9998,2 45399  53.0470 160.6042 0007492 149.1234 211.0210 15.35933530316864
STARLINK-1260,45404,53.0522,0.0001585,15.0640719,546.0918574577854,548.2871859651668,1 45404U 20019AW  25345.93995712  .00001206  00000+0  99841-4 0  9996,2 45404  53.0522 170.5379 0001585  93.6698 266.4472 15.06407190316631
STARLINK-1263,45405,53.0518,0.0001589,15.06394278,546.1286544271588,548.3295357721818,1 45405U 20019AX  25345.52713084 -.00006338  00000+0 -40700-3 0  9994,2 45405  53.0518 172.3970 0001589  88.6253 271.4918 15.06394278316575
STARLINK-1265,45406,53.053,0.0001477,15.06407605,546.1653792672596,548.2111203460536,1 45406U 20019AY  25345.26911766 -.00000626  00000+0 -23119-4 0  9993,2 45406  53.0530 173.5559 0001477  82.4572 277.6585 15.06407605316531
STARLINK-1278,45408,53.0509,0.0009743,15.39181605,441.8768875790056,455.17932720727094,1 45408U 20019BA  25345.86356512  .00074216  00000+0  18713-2 0  9999,2 45408  53.0509 190.0283 0009743 124.6982 235.4940 15.39181605316368
STARLINK-1296,45412,53.0445,0.0002783,15.06424009,545.2106707630301,549.065278813996,1 45412U 20019BE  25345.53818285  .00000318  00000+0  40240-4 0  9992,2 45412  53.0445 172.3433 0002783  88.1022 272.0285 15.06424009316572
STARLINK-1298,45413,53.0436,0.0006232,15.60936009,380.73733245133826,389.1668466925803,1 45413U 20019BF  25346.33349537  .00191706  00000+0  21985-2 0  9996,2 45413  53.0436 130.0366 0006232  93.0971   8.4886 15.60936009  5784
STARLINK-1309,45414,53.055,9.95e-05,15.06378963,546.5869554668498,547.9651126606286,1 45414U 20019BG  25346.21643297 -.00001123  00000+0 -56561-4 0  9999,2 45414  53.0550 169.3020 0000995  90.7189 269.3914 15.06378963316660
STARLINK-1316,45415,53.0539,0.0001391,15.06401812,546.242689212906,548.169319636736,1 45415U 20019BH  25345.84413076  .00000877  00000+0  77774-4 0  9990,2 45415  53.0539 170.9718 0001391  90.1291 269.9857 15.06401812316649
STARLINK-1318,45416,53.0455,0.0001458,15.67877626,363.99226373098463,365.95855530960125,1 45416U 20019BJ  25346.33349537  .00129203  00000+0  11370-2 0  9999,2 45416  53.0455 119.3962 0001458 180.8906 354.6259 15.67877626  5852
STARLINK-1286,45417,53.0522,0.0005617,15.40963613,439.43249654084593,447.095658511339,1 45417U 20019BK  25346.00005786  .00131290  00000+0  30944-2 0  9996,2 45417  53.0522 189.3313 0005617 129.1858 350.8715 15.40963613  5924
STARLINK-1308,45419,53.0524,0.0001499,15.06419896,546.1124796266922,548.1886808432464,1 45419U 20019BM  25345.87823439  .00005439  00000+0  38353-3 0  9993,2 45419  53.0524 200.8177 0001499  82.5845 277.5314 15.06419896316237
STARLINK-1329,45531,53.0541,0.0001368,15.22279649,498.02549903941326,499.90707449867386,1 45531U 20025A   25346.33349537  .01111319  00000+0  44018-1 0  9998,2 45531  53.0541 138.3228 0001368  91.2591 264.2289 15.22279649  5690
STARLINK-1338,45532,53.0514,0.0001546,15.06430202,546.0483501278904,548.1896392814524,1 45532U 20025B   25345.45987392  .00008958  00000+0  61900-3 0  9992,2 45532  53.0514 142.6963 0001546  97.9313 262.1852 15.06430202311798
STARLINK-1350,45535,53.0744,0.0001606,15.33654526,463.8208485619043,466.0188384200337,1 45535U 20025E   25346.27592052  .00018428  00000+0  56834-3 0  9994,2 45535  53.0744  82.8958 0001606  94.9658 265.1526 15.33654526312734
STARLINK-1362,45538,53.0548,7.45e-05,15.06385492,546.7400814453795,547.7719650058407,1 45538U 20025H   25345.42573692 -.00001399  00000+0 -75106-4 0  9997,2 45538  53.0548 142.5688 0000745  91.2538 268.8537 15.06385492311793
STARLINK-1368,45540,53.0546,0.000137,15.06400587,546.2609863624393,548.1585313743699,1 45540U 20025K   25346.16019861  .00000732  00000+0  68023-4 0  9993,2 45540  53.0546 139.5533 0001370  87.3322 272.7824 15.06400587311898
STARLINK-1371,45542,53.054,0.0001468,15.06412847,546.1555486251982,548.1888194016246,1 45542U 20025M   25345.46723280  .00001645  00000+0  12929-3 0  9991,2 45542  53.0540 142.6609 0001468  90.3203 269.7955 15.06412847311795
STARLINK-1372,45543,53.0526,0.0002011,15.06378693,545.8841608666717,548.6695623218038,1 45543U 20025N   25346.16760489 -.00004071  00000+0 -25470-3 0  9995,2 45543  53.0526 139.5206 0002011  98.8868 261.2348 15.06378693310997
STARLINK-1373,45544,53.0471,0.0002513,15.06405625,545.4539824168132,548.9346539373291,1 45544U 20025P   25345.45618002  .00000873  00000+0  77512-4 0  9999,2 45544  53.0471 142.7079 0002513  95.2184 264.9092 15.06405625311791
STARLINK-1294,45551,53.0453,0.000143,15.68143689,363.24850732086725,365.176819324578,1 45551U 20025W   25346.33349537  .00087280  00000+0  76532-3 0  9996,2 45551  53.0453  54.7960 0001430 137.1741  76.8693 15.68143689  5853
STARLINK-1325,45554,53.0514,0.0009297,15.7802758,329.78746742522253,342.27178885358444,1 45554U 20025Z   25346.33349537  .00175300  00000+0  99162-3 0  9994,2 45554  53.0514  46.0187 0009297  16.1457 155.1343 15.78027580  5910
STARLINK-1327,45555,53.0544,0.0001215,15.06389679,546.4017568042427,548.0846241905347,1 45555U 20025AA  25345.36219917  .00001488  00000+0  11880-3 0  9991,2 45555  53.0544 123.1353 0001215  91.8495 268.2634 15.06389679312056
STARLINK-1356,45564,53.0553,6.13e-05,15.06405554,546.7700129573559,547.6190586036437,1 45564U 20025AK  25345.76394542  .00000953  00000+0  82819-4 0  9990,2 45564  53.0553 121.3302 0000613 144.8202 215.2828 15.06405554312111
STARLINK-1357,45565,53.0589,0.0004709,15.39221409,445.1957947866822,451.62503714303875,1 45565U 20025AL  25346.33349537  .00107258  00000+0  26879-2 0  9997,2 45565  53.0589  95.2158 0004709 154.4692  13.0508 15.39221409  5860
STARLINK-1361,45567,53.0532,0.0001519,15.06404814,546.1448455561203,548.2487619657031,1 45567U 20025AN  25345.64969527  .00000368  00000+0  43572-4 0  9994,2 45567  53.0532 121.8425 0001519  89.8589 270.2574 15.06404814312100
STARLINK-1363,45568,53.0504,0.0005461,15.49249468,415.2085277271972,422.63227382032255,1 45568U 20025AP  25346.00005786  .00073045  00000+0  13112-2 0  9991,2 45568  53.0504 106.5523 0005461 237.7250  70.2948 15.49249468  5851
STARLINK-1366,45569,53.0491,0.0004721,15.46341664,424.2257963465663,430.65162093066283,1 45569U 20025AQ  25346.00005786  .00063841  00000+0  12705-2 0  9992,2 45569  53.0491 106.6338 0004721 252.4163 314.0093 15.46341664  5844
STARLINK-1376,45570,53.056,0.0001375,15.06405964,546.2410462841672,548.1455121109457,1 45570U 20025AR  25345.64600321  .00001425  00000+0  11450-3 0  9996,2 45570  53.0560 121.8636 0001375  87.2451 272.8695 15.06405964312096
STARLINK-1320,45572,53.0545,0.0004235,15.48994259,416.7880894460686,422.54582939969896,1 45572U 20025AT  25346.00005786  .00110316  00000+0  19848-2 0  9991,2 45572  53.0545  52.1496 0004235 117.1697  17.4950 15.48994259  5906
STARLINK-1321,45573,53.053,0.000127,15.06415649,546.2840832466018,548.0431095980921,1 45573U 20025AU  25345.63217606  .00004414  00000+0  31490-3 0  9995,2 45573  53.0530 111.9244 0001270  88.6399 271.4736 15.06415649311935
STARLINK-1328,45576,53.0452,0.0002265,15.87037322,309.0792735553796,312.1092688212275,1 45576U 20025AX  25346.33349537  .00299527  00000+0  10964-2 0  9998,2 45576  53.0452  63.9761 0002265 202.0010  37.6565 15.87037322  5982
STARLINK-1331,45578,53.051,0.0001411,15.06386346,546.2762332115726,548.2305783840893,1 45578U 20025AZ  25345.07930373 -.00000940  00000+0 -44248-4 0  9999,2 45578  53.0510 114.4057 0001411  82.8494 277.2655 15.06386346312168
STARLINK-1333,45580,53.0509,0.0001412,15.06405718,546.2161764053744,548.171889889135,1 45580U 20025BB  25345.81556363  .00000901  00000+0  79396-4 0  9994,2 45580  53.0509 121.0980 0001412  93.7435 266.3716 15.06405718312123
STARLINK-1335,45581,53.0535,0.0001727,15.0641328,545.97485628306,548.3668576168502,1 45581U 20025BC  25345.62113371  .00001561  00000+0  12365-3 0  9997,2 45581  53.0535 111.9750 0001727  86.0884 274.0302 15.06413280312230
STARLINK-1337,45582,53.0546,0.0001476,15.06421406,546.1237806444105,548.1681241719625,1 45582U 20025BD  25345.77592009 -.00000198  00000+0  55764-5 0  9991,2 45582  53.0546 111.2801 0001476  91.7713 268.3445 15.06421406312253
STARLINK-1347,45586,53.051,0.0004151,15.38061776,449.0061447461485,454.67639270484415,1 45586U 20025BH  25346.33349537  .00092453  00000+0  24124-2 0  9991,2 45586  53.0510  85.9458 0004151 155.0162 243.0302 15.38061776  5861
STARLINK-1360,45588,53.0397,0.0004708,15.89631758,300.1688827540702,306.460137496003,1 45588U 20025BK  25346.33349537  .00283815  00000+0  91455-3 0  9999,2 45588  53.0397 350.3030 0004708  45.3458 208.6354 15.89631758  6008
